ONEWEB-0461             
1 51649U 22012AD  24302.14297411  .00000060  00000+0  12201-3 0  9996
2 51649  87.9066 124.7930 0001485  87.1301 273.0000 13.17647997136553
ONEWEB-0463             
1 51650U 22012AE  24301.97254735  .00000920  00000+0  23361-2 0  9993
2 51650  87.9075 124.8801 0001571  90.9428 269.1884 13.17657633136320
ONEWEB-0464             
1 51651U 22012AF  24301.99363993  .00000006  00000+0 -19837-4 0  9994
2 51651  87.8923 155.1767 0001906  77.3799 282.7541 13.10369163132410
ONEWEB-0468             
1 51652U 22012AG  24301.84756146 -.00000397  00000+0 -11732-2 0  9993
2 51652  87.8921 155.1980 0001579  80.1737 279.9569 13.10369978131079
ONEWEB-0473             
1 51653U 22012AH  24301.98534267  .00000455  00000+0  12678-2 0  9990
2 51653  87.8922 155.1741 0001612  84.6608 275.4703 13.10371237132398
ONEWEB-0474             
1 51654U 22012AJ  24301.90069177  .00000820  00000+0  23122-2 0  9998
2 51654  87.8913 155.1759 0001816  82.7572 277.3762 13.10371690131076
ONEWEB-0475             
1 51655U 22012AK  24301.90843621  .00000111  00000+0  25210-3 0  9997
2 51655  87.9073 124.8723 0002315 102.3380 257.8011 13.17650740135033
ONEWEB-0490             
1 54113U 22138A   24302.07734009  .00000127  00000+0  28587-3 0  9993
2 54113  87.9161  63.7014 0001780  94.9554 265.1782 13.19723590 98942
